TOMORROW-R2             
1 56962U 23084AG  26068.88846178  .00107013  00000+0  81619-3 0  9996
2 56962  97.5895 222.1734 0005114 248.1295 111.9424 15.71879583153326
STARLINK-11603 [DTC]    
1 63671U 25085H   26068.89863465  .00247841  00000+0  18730-2 0  9990
2 63671  43.0021 277.2502 0003836 284.9523  75.0920 15.70899274 50272
